45434,ONEWEB-0018,2020,109.81,148.0,+,87.9,Active,1,LEO,Kazakhstan,UK,Commercial,Communications,Soyuz,1 45434U 20020L   24257.79095107 -.00000161  00000+0 -49058-3 0  9990,2 45434  87.8977 148.8016 0001749  76.9735 283.1588 13.11413479218576,13.11413479,0.0001749,LEO
45435,ONEWEB-0083,2020,109.8,148.0,+,87.9,Active,1,LEO,Kazakhstan,UK,Commercial,Communications,Soyuz,1 45435U 20020M   24256.71262777  .00000101  00000+0  24990-3 0  9991,2 45435  87.8977 148.9969 0001837  72.8090 287.3239 13.11416691218468,13.11416691,0.0001837,LEO
45436,ONEWEB-0095,2020,109.8,148.0,+,87.9,Active,1,LEO,Kazakhstan,UK,Commercial,Communications,Soyuz,1 45436U 20020N   24257.46725856  .00000535  00000+0  14747-2 0  9996,2 45436  87.8974 148.8802 0002400  58.4511 301.6851 13.11418441218573,13.11418441,0.00024,LEO
45437,ONEWEB-0092,2020,109.8,148.0,+,87.9,Active,1,LEO,Kazakhstan,UK,Commercial,Communications,Soyuz,1 45437U 20020P   24257.12884937 -.00000197  00000+0 -59293-3 0  9998,2 45437  87.8980 148.9302 0001891  64.9081 295.2243 13.11415921218634,13.11415921,0.0001891,LEO
45438,ONEWEB-0085,2020,109.81,148.0,+,87.9,Active,1,LEO,Kazakhstan,UK,Commercial,Communications,Soyuz,1 45438U 20020Q   24257.46881976  .00000533  00000+0  14690-2 0  9999,2 45438  87.8978 148.8715 0001702  75.5932 284.5384 13.11415246218573,13.11415246,0.0001702,LEO
45439,ONEWEB-0096,2020,109.8,148.0,+,87.9,Active,1,LEO,Kazakhstan,UK,Commercial,Communications,Soyuz,1 45439U 20020R   24257.78247943  .00000187  00000+0  49141-3 0  9990,2 45439  87.8977 148.7787 0001570  77.2361 282.8942 13.11415899218608,13.11415899,0.000157,LEO
45440,ONEWEB-0037,2020,109.81,148.0,+,87.9,Active,1,LEO,Kazakhstan,UK,Commercial,Communications,Soyuz,1 45440U 20020S   24257.22976051  .00000654  00000+0  18093-2 0  9990,2 45440  87.8971 148.8672 0001774  69.9566 290.1753 13.11416851218565,13.11416851,0.0001774,LEO
45441,ONEWEB-0042,2020,109.81,148.0,+,87.9,Active,1,LEO,Kazakhstan,UK,Commercial,Communications,Soyuz,1 45441U 20020T   24257.46698704  .00000542  00000+0  14947-2 0  9993,2 45441  87.8977 148.8546 0001700  73.9799 286.1516 13.11415249218566,13.11415249,0.00017,LEO
